[
    {
        "Altitude(m)": 612513.8985984529,
        "Argument of Periapsis(deg)": 0.0,
        "Eccentricity": 0.0,
        "Inclination(deg)": 60.0,
        "Latitude(deg)": -28.135856448440844,
        "Longitude(deg)": 122.91309222953292,
        "Mean Anomaly(deg)": 212.72730000000004,
        "RAAN(deg)": 25.0,
        "Satellite Name": "Test1 123",
        "Satellite Number": 123,
        "Semi-Major Axis(m)": 6980739.136638005,
        "Time(s)": 0
    },
    {
        "Altitude(m)": 612708.2662677438,
        "Argument of Periapsis(deg)": 0.00010418945913296404,
        "Eccentricity": 0.0,
        "Inclination(deg)": 60.0,
        "Latitude(deg)": -28.647595886021094,
        "Longitude(deg)": 123.27032175714989,
        "Mean Anomaly(deg)": 213.34740614546183,
        "RAAN(deg)": 24.99957995086026,
        "Satellite Name": "Test1 123",
        "Satellite Number": 123,
        "Semi-Major Axis(m)": 6980739.136638005,
        "Time(s)": 10
    }
]